[{"OBJECT_NAME":"YUNHAI-2 02E","OBJECT_ID":"2024-052E","EPOCH":"2026-03-09T23:04:08.218272","MEAN_MOTION":14.27923834,"ECCENTRICITY":0.00117453,"INCLINATION":50.0117,"RA_OF_ASC_NODE":23.2487,"ARG_OF_PERICENTER":69.3739,"MEAN_ANOMALY":290.8434,"EPHEMERIS_TYPE":0,"CLASSIFICATION_TYPE":"U","NORAD_CAT_ID":59284,"ELEMENT_SET_NO":999,"REV_AT_EPOCH":9275,"BSTAR":0.0001398659,"MEAN_MOTION_DOT":1.88e-6,"MEAN_MOTION_DDOT":0},{"OBJECT_NAME":"DMSP 5D-2 F13 DEB","OBJECT_ID":"1995-015AT","EPOCH":"2026-03-09T00:59:07.088928","MEAN_MOTION":14.24205101,"ECCENTRICITY":0.00222326,"INCLINATION":98.8216,"RA_OF_ASC_NODE":92.6725,"ARG_OF_PERICENTER":164.8948,"MEAN_ANOMALY":195.2899,"EPHEMERIS_TYPE":0,"CLASSIFICATION_TYPE":"U","NORAD_CAT_ID":40441,"ELEMENT_SET_NO":999,"REV_AT_EPOCH":56937,"BSTAR":0.0011344646,"MEAN_MOTION_DOT":2.577e-5,"MEAN_MOTION_DDOT":0}]
